NORAD_CAT_ID,OBJECT_NAME,OBJECT_TYPE,EPOCH,MEAN_MOTION,ECCENTRICITY,INCLINATION,RA_OF_ASC_NODE,ARG_OF_PERICENTER,MEAN_ANOMALY,BSTAR,MEAN_MOTION_DOT,MEAN_MOTION_DDOT,TLE_LINE0,TLE_LINE1,TLE_LINE2,SEMIMAJOR_AXIS,PERIOD,APOGEE,PERIGEE,DECAYED
53556.0,STARLINK-4505,PAYLOAD,2023-11-04 23:05:53,15.08839124,0.000174,53.2172,305.635,96.8109,263.3081,0.00015401,2.164e-05,0.0,0 STARLINK-4505,1 53556U 22101AF  23308.96242374  .00002164  00000-0  15401-3 0  9990,2 53556  53.2172 305.6350 0001740  96.8109 263.3081 15.08839124 67123,6917.883,95.438,540.952,538.544,0.0
53556.0,STARLINK-4505,PAYLOAD,2023-11-05 03:52:02,15.08841905,0.0001701,53.2163,304.7385,90.0862,270.0325,9.8045e-05,1.273e-05,0.0,0 STARLINK-4505,1 53556U 22101AF  23309.16114253  .00001273  00000-0  98045-4 0  9993,2 53556  53.2163 304.7385 0001701  90.0862 270.0325 15.08841905 67159,6917.875,95.437,540.916,538.563,0.0
53556.0,STARLINK-4505,PAYLOAD,2023-11-05 07:02:48,15.08847331,0.0001733,53.2173,304.1466,92.8553,267.2638,0.00015458,2.173e-05,0.0,0 STARLINK-4505,1 53556U 22101AF  23309.29361967  .00002173  00000-0  15458-3 0  9999,2 53556  53.2173 304.1466 0001733  92.8553 267.2638 15.08847331 67172,6917.858,95.437,540.922,538.524,0.0
53556.0,STARLINK-4505,PAYLOAD,2023-11-05 16:35:07,15.08844224,0.0001638,53.2164,302.3614,90.404,269.714,8.8133e-05,1.115e-05,0.0,0 STARLINK-4505,1 53556U 22101AF  23309.69106039  .00001115  00000-0  88133-4 0  9996,2 53556  53.2164 302.3614 0001638  90.4040 269.7140 15.08844224 67236,6917.867,95.437,540.866,538.599,0.0
53556.0,STARLINK-4505,PAYLOAD,2023-11-06 03:42:48,15.08866898,0.0001809,53.2175,300.281,115.3131,244.8049,0.00046445,7.117e-05,0.0,0 STARLINK-4505,1 53556U 22101AF  23310.15472820  .00007117  00000-0  46445-3 0  9990,2 53556  53.2175 300.2810 0001809 115.3131 244.8049 15.08866898 67302,6917.798,95.436,540.915,538.412,0.0
53556.0,STARLINK-4505,PAYLOAD,2023-11-06 08:28:57,15.08876417,0.0001776,53.2162,299.3884,93.9018,266.2177,0.00066383,0.00010303,0.0,0 STARLINK-4505,1 53556U 22101AF  23310.35344495  .00010303  00000-0  66383-3 0  9992,2 53556  53.2162 299.3884 0001776  93.9018 266.2177 15.08876417 67336,6917.769,95.435,540.863,538.405,0.0
53556.0,STARLINK-4505,PAYLOAD,2023-11-06 16:25:54,15.08845903,0.0002917,53.2174,297.9021,80.3808,279.7514,-7.2171e-05,-1.437e-05,0.0,0 STARLINK-4505,1 53556U 22101AF  23310.68465543 -.00001437  00000-0 -72171-4 0  9999,2 53556  53.2174 297.9021 0002917  80.3808 279.7514 15.08845903 67386,6917.862,95.437,541.745,537.709,0.0
53556.0,STARLINK-4505,PAYLOAD,2023-11-07 03:33:37,15.08815432,0.0001806,53.2164,295.8185,86.6216,273.4983,-0.00045829,-7.57e-05,0.0,0 STARLINK-4505,1 53556U 22101AF  23311.14834646 -.00007570  00000-0 -45829-3 0  9998,2 53556  53.2164 295.8185 0001806  86.6216 273.4983 15.08815432 67454,6917.955,95.439,541.07,538.571,0.0
53556.0,STARLINK-4505,PAYLOAD,2023-11-07 08:19:47,15.08814135,0.0002095,53.2165,294.9257,82.3862,277.7368,-0.0001901,-3.31e-05,0.0,0 STARLINK-4505,1 53556U 22101AF  23311.34707226 -.00003310  00000-0 -19010-3 0  9994,2 53556  53.2165 294.9257 0002095  82.3862 277.7368 15.08814135 67482,6917.959,95.439,541.274,538.375,0.0
53556.0,STARLINK-4505,PAYLOAD,2023-11-07 16:16:42,15.08825072,0.0001612,53.217,293.4412,82.3233,277.7942,-8.4834e-05,-1.637e-05,0.0,0 STARLINK-4505,1 53556U 22101AF  23311.67826775 -.00001637  00000-0 -84834-4 0  9998,2 53556  53.2170 293.4412 0001612  82.3233 277.7942 15.08825072 67537,6917.926,95.438,540.906,538.676,0.0
53556.0,STARLINK-4505,PAYLOAD,2023-11-08 04:59:47,15.08838717,0.0001322,53.2148,291.0618,78.5955,281.5185,0.00086311,0.00013475,0.0,0 STARLINK-4505,1 53556U 22101AF  23312.20819047  .00013475  00000-0  86311-3 0  9994,2 53556  53.2148 291.0618 0001322  78.5955 281.5185 15.08838717 67611,6917.884,95.438,540.664,538.835,0.0
53556.0,STARLINK-4505,PAYLOAD,2023-11-08 16:07:29,15.08854051,0.0001377,53.2159,288.9822,70.3572,289.7569,0.0008629,0.00013477,0.0,0 STARLINK-4505,1 53556U 22101AF  23312.67186889  .00013477  00000-0  86290-3 0  9994,2 53556  53.2159 288.9822 0001377  70.3572 289.7569 15.08854051 67682,6917.837,95.437,540.655,538.75,0.0
53556.0,STARLINK-4505,PAYLOAD,2023-11-09 03:15:11,15.08850759,0.0001552,53.2168,286.8993,82.6518,277.4651,0.00051343,7.895e-05,0.0,0 STARLINK-4505,1 53556U 22101AF  23313.13554837  .00007895  00000-0  51343-3 0  9996,2 53556  53.2168 286.8993 0001552  82.6518 277.4651 15.08850759 67754,6917.848,95.437,540.786,538.639,0.0
53556.0,STARLINK-4505,PAYLOAD,2023-11-09 04:50:34,15.08853688,0.0001135,53.216,286.6061,83.831,276.2811,0.00053455,8.233e-05,0.0,0 STARLINK-4505,1 53556U 22101AF  23313.20178501  .00008233  00000-0  53455-3 0  9997,2 53556  53.2160 286.6061 0001135  83.8310 276.2811 15.08853688 67760,6917.839,95.437,540.489,538.918,0.0
53556.0,STARLINK-4505,PAYLOAD,2023-11-09 15:58:16,15.08848744,0.0001854,53.2155,284.5232,62.9912,297.1269,0.00024549,3.622e-05,0.0,0 STARLINK-4505,1 53556U 22101AF  23313.66546792  .00003622  00000-0  24549-3 0  9997,2 53556  53.2155 284.5232 0001854  62.9912 297.1269 15.08848744 67839,6917.854,95.437,541.001,538.436,0.0
53556.0,STARLINK-4505,PAYLOAD,2023-11-10 07:52:07,15.08848982,0.000146,53.2166,281.5441,88.5166,271.5993,0.00022863,3.353e-05,0.0,0 STARLINK-4505,1 53556U 22101AF  23314.32786472  .00003353  00000-0  22863-3 0  9990,2 53556  53.2166 281.5441 0001460  88.5166 271.5993 15.08848982 67933,6917.853,95.437,540.728,538.708,0.0
53556.0,STARLINK-4505,PAYLOAD,2023-11-11 02:56:45,15.08841537,0.0001636,53.2166,277.9709,98.5762,261.5416,1.502e-05,-4.9e-07,0.0,0 STARLINK-4505,1 53556U 22101AF  23315.12274852 -.00000049  00000-0  15020-4 0  9991,2 53556  53.2166 277.9709 0001636  98.5762 261.5416 15.08841537 68059,6917.876,95.437,540.872,538.609,0.0
53556.0,STARLINK-4505,PAYLOAD,2023-11-11 14:04:27,15.08842111,0.0001575,53.2167,275.8951,82.6774,277.4397,0.00011318,1.514e-05,0.0,0 STARLINK-4505,1 53556U 22101AF  23315.58643021  .00001514  00000-0  11318-3 0  9991,2 53556  53.2167 275.8951 0001575  82.6774 277.4397 15.08842111 68126,6917.874,95.437,540.829,538.649,0.0
53556.0,STARLINK-4505,PAYLOAD,2023-11-11 22:01:23,15.0883381,0.0001647,53.2185,274.4086,90.9823,269.1358,6.221e-05,7.02e-06,0.0,0 STARLINK-4505,1 53556U 22101AF  23315.91763462  .00000702  00000-0  62210-4 0  9996,2 53556  53.2185 274.4086 0001647  90.9823 269.1358 15.08833810 68173,6917.899,95.438,540.904,538.625,0.0
53556.0,STARLINK-4505,PAYLOAD,2023-11-12 04:22:56,15.0883893,0.0001416,53.2164,273.2196,94.0404,266.075,0.00013256,1.822e-05,0.0,0 STARLINK-4505,1 53556U 22101AF  23316.18259279  .00001822  00000-0  13256-3 0  9991,2 53556  53.2164 273.2196 0001416  94.0404 266.0750 15.08838930 68218,6917.884,95.438,540.728,538.769,0.0
53556.0,STARLINK-4505,PAYLOAD,2023-11-12 13:55:14,15.08840205,0.0001412,53.2163,271.436,91.9225,268.1929,0.00015208,2.133e-05,0.0,0 STARLINK-4505,1 53556U 22101AF  23316.58003325  .00002133  00000-0  15208-3 0  9999,2 53556  53.2163 271.4360 0001412  91.9225 268.1929 15.08840205 68278,6917.88,95.438,540.722,538.768,0.0
53556.0,STARLINK-4505,PAYLOAD,2023-11-12 21:52:10,15.08840545,0.0001392,53.2164,269.9478,91.3918,268.7234,0.00015407,2.165e-05,0.0,0 STARLINK-4505,1 53556U 22101AF  23316.91123446  .00002165  00000-0  15407-3 0  9999,2 53556  53.2164 269.9478 0001392  91.3918 268.7234 15.08840545 68329,6917.879,95.438,540.707,538.781,0.0
53556.0,STARLINK-4505,PAYLOAD,2023-11-13 05:49:05,15.08855868,0.0001414,53.2165,268.4618,94.5371,265.5782,0.00043258,6.606e-05,0.0,0 STARLINK-4505,1 53556U 22101AF  23317.24242867  .00006606  00000-0  43258-3 0  9994,2 53556  53.2165 268.4618 0001414  94.5371 265.5782 15.08855868 68375,6917.832,95.437,540.675,538.719,0.0
53556.0,STARLINK-4505,PAYLOAD,2023-11-13 13:46:01,15.0884989,0.0001317,53.2166,266.9724,79.0502,281.0638,0.00028424,4.24e-05,0.0,0 STARLINK-4505,1 53556U 22101AF  23317.57362908  .00004240  00000-0  28424-3 0  9999,2 53556  53.2166 266.9724 0001317  79.0502 281.0638 15.08849890 68420,6917.85,95.437,540.626,538.804,0.0
53556.0,STARLINK-4505,PAYLOAD,2023-11-14 04:04:30,15.08844489,0.0001355,53.216,264.2987,84.1697,275.945,0.00015194,2.131e-05,0.0,0 STARLINK-4505,1 53556U 22101AF  23318.16979169  .00002131  00000-0  15194-3 0  9995,2 53556  53.2160 264.2987 0001355  84.1697 275.9450 15.08844489 68513,6917.867,95.437,540.669,538.794,0.0
53556.0,STARLINK-4505,PAYLOAD,2023-11-14 13:36:48,15.08840534,0.0001274,53.2159,262.5139,92.0525,268.0613,7.9598e-05,9.79e-06,0.0,0 STARLINK-4505,1 53556U 22101AF  23318.56723157  .00000979  00000-0  79598-4 0  9990,2 53556  53.2159 262.5139 0001274  92.0525 268.0613 15.08840534 68576,6917.879,95.438,540.625,538.862,0.0
53556.0,STARLINK-4505,PAYLOAD,2023-11-15 03:55:17,15.08843148,0.0001337,53.2163,259.8371,92.0664,268.0482,0.00017553,2.507e-05,0.0,0 STARLINK-4505,1 53556U 22101AF  23319.16339220  .00002507  00000-0  17553-3 0  9992,2 53556  53.2163 259.8371 0001337  92.0664 268.0482 15.08843148 68660,6917.871,95.437,540.661,538.811,0.0
53556.0,STARLINK-4505,PAYLOAD,2023-11-15 05:30:40,15.08845858,0.0001458,53.2172,259.5377,91.9913,268.1246,0.00024445,3.605e-05,0.0,0 STARLINK-4505,1 53556U 22101AF  23319.22963141  .00003605  00000-0  24445-3 0  9992,2 53556  53.2172 259.5377 0001458  91.9913 268.1246 15.08845858 68672,6917.862,95.437,540.736,538.719,0.0
53556.0,STARLINK-4505,PAYLOAD,2023-11-15 19:49:08,15.08839438,0.0001494,53.216,256.8641,87.9828,272.1335,0.00019358,2.794e-05,0.0,0 STARLINK-4505,1 53556U 22101AF  23319.82579663  .00002794  00000-0  19358-3 0  9995,2 53556  53.2160 256.8641 0001494  87.9828 272.1335 15.08839438 68764,6917.882,95.438,540.781,538.714,0.0
53556.0,STARLINK-4505,PAYLOAD,2023-11-16 02:10:41,15.08843964,0.0001721,53.217,255.673,109.9096,250.2082,0.00023236,3.412e-05,0.0,0 STARLINK-4505,1 53556U 22101AF  23320.09075430  .00003412  00000-0  23236-3 0  9997,2 53556  53.2170 255.6730 0001721 109.9096 250.2082 15.08843964 68806,6917.868,95.437,540.924,538.543,0.0
